{
  "norad_id": 68518,
  "name": "STARLINK-36857",
  "history": [
    {
      "epoch": "2026-04-07T05:52:52.441824Z",
      "apogee_km": 296.65468527797566,
      "perigee_km": 294.8340504408234,
      "latitude_deg": 2.4303229905654303e-05,
      "longitude_deg": 82.50339006368522,
      "height_km": 295.7627328393628,
      "semi_major_axis_km": 6673.8813678594,
      "eccentricity": 0.0001364,
      "inclination_deg": 53.1608,
      "raan_deg": 6.2466,
      "arg_perigee_deg": 5.9842,
      "mean_anomaly_deg": 354.1202,
      "mean_motion_rev_day": 15.92337189
    },
    {
      "epoch": "2026-04-09T20:00:01.999008Z",
      "apogee_km": 325.2212015947507,
      "perigee_km": 324.02140785820484,
      "latitude_deg": 28.844072367529705,
      "longitude_deg": -120.70518102490881,
      "height_km": 325.6697728073071,
      "semi_major_axis_km": 6702.758304726477,
      "eccentricity": 8.95e-05,
      "inclination_deg": 53.1607,
      "raan_deg": 353.1565,
      "arg_perigee_deg": 75.1135,
      "mean_anomaly_deg": 321.8402,
      "mean_motion_rev_day": 15.82058079
    },
    {
      "epoch": "2026-04-10T09:29:51.986976Z",
      "apogee_km": 328.5774430779211,
      "perigee_km": 326.9251122063097,
      "latitude_deg": 4.97551781630596e-05,
      "longitude_deg": 9.240834107553178,
      "height_km": 328.1360441190574,
      "semi_major_axis_km": 6705.888277642115,
      "eccentricity": 0.0001232,
      "inclination_deg": 53.1602,
      "raan_deg": 350.3376,
      "arg_perigee_deg": 49.7801,
      "mean_anomaly_deg": 310.333,
      "mean_motion_rev_day": 15.8095057
    },
    {
      "epoch": "2026-04-11T20:00:01.000224Z",
      "apogee_km": 328.75478991493856,
      "perigee_km": 327.1158258428932,
      "latitude_deg": -53.17213935490864,
      "longitude_deg": 107.25282471077695,
      "height_km": 347.20062793321136,
      "semi_major_axis_km": 6706.072307878915,
      "eccentricity": 0.0001222,
      "inclination_deg": 53.1596,
      "raan_deg": 343.1305,
      "arg_perigee_deg": 74.2031,
      "mean_anomaly_deg": 192.2903,
      "mean_motion_rev_day": 15.80885493
    },
    {
      "epoch": "2026-04-13T02:44:24.642240Z",
      "apogee_km": 328.35042349734795,
      "perigee_km": 327.06544949061663,
      "latitude_deg": -3.6128545016525526e-05,
      "longitude_deg": 94.30029275268825,
      "height_km": 328.53799924840735,
      "semi_major_axis_km": 6705.8449364939825,
      "eccentricity": 9.581e-05,
      "inclination_deg": 53.159,
      "raan_deg": 336.7126,
      "arg_perigee_deg": 82.1236,
      "mean_anomaly_deg": 277.9895,
      "mean_motion_rev_day": 15.80965897
    },
    {
      "epoch": "2026-04-14T21:13:25.090752Z",
      "apogee_km": 328.47549275809524,
      "perigee_km": 327.0082464614243,
      "latitude_deg": 2.346974265646757e-05,
      "longitude_deg": 166.43303658897037,
      "height_km": 328.08205170348896,
      "semi_major_axis_km": 6705.87886960976,
      "eccentricity": 0.0001094,
      "inclination_deg": 53.1583,
      "raan_deg": 327.8419,
      "arg_perigee_deg": 37.9871,
      "mean_anomaly_deg": 322.1229,
      "mean_motion_rev_day": 15.80953897
    }
  ]
}